MEAN_MOTION;ECCENTRICITY;INCLINATION;RA_OF_ASC_NODE;ARG_OF_PERICENTER;MEAN_ANOMALY;BSTAR;MEAN_MOTION_DOT;MEAN_MOTION_DDOT;TYPE
14.33636906;0.0007131;86.3917;20.2494;344.4702;15.6273;1.7832E-5;6.9E-7;0;Iridium
14.33636996;0.0007069;86.3917;20.045;342.7298;17.3656;1.9084E-5;7.3E-7;0;Iridium
14.33637057;0.0006995;86.3918;19.8115;340.7663;19.3268;1.8127E-5;7.0E-7;0;Iridium
14.33637135;0.0006946;86.3919;19.6363;339.2571;20.8341;1.9499E-5;7.4E-7;0;Iridium
14.33637187;0.0006888;86.3919;19.4028;337.2936;22.7954;1.783E-5;6.9E-7;0;Iridium
14.33637232;0.0006849;86.392;19.2277;335.7914;24.2959;1.7541E-5;6.8E-7;0;Iridium
14.3363725;0.0006792;86.392;19.0233;334.0162;26.0691;1.5485E-5;6.3E-7;0;Iridium
14.33637359;0.0006725;86.3921;18.7898;331.9204;28.1627;1.7654E-5;6.9E-7;0;Iridium
14.33637359;0.0006725;86.3921;18.7898;331.9204;28.1627;1.7654E-5;6.9E-7;0;Iridium
14.33637472;0.0006626;86.3922;18.4103;328.4715;31.6083;1.8833E-5;7.2E-7;0;Iridium
14.33637549;0.0006587;86.3923;18.2352;326.8957;33.1825;2.0644E-5;7.7E-7;0;Iridium
14.33637634;0.0006505;86.3923;17.9724;324.4887;35.5874;2.2001E-5;8.1E-7;0;Iridium
14.33637634;0.0006505;86.3923;17.9724;324.4887;35.5874;2.2001E-5;8.1E-7;0;Iridium
14.33637704;0.0006447;86.3923;17.7389;322.3988;37.6756;2.306E-5;8.4E-7;0;Iridium
14.33637737;0.0006411;86.3924;17.5637;320.751;39.322;2.3523E-5;8.5E-7;0;Iridium
14.33637773;0.0006356;86.3924;17.3302;318.5997;41.4716;2.3156E-5;8.4E-7;0;Iridium
14.33637822;0.0006265;86.3925;16.8923;314.424;45.6442;2.144E-5;7.9E-7;0;Iridium
14.33637881;0.0006232;86.3926;16.7172;312.7203;47.3467;2.2757E-5;8.3E-7;0;Iridium
14.33637887;0.0006192;86.3926;16.4837;310.5905;49.4751;1.9889E-5;7.5E-7;0;Iridium
14.33637991;0.0006144;86.3926;16.221;308.104;51.9601;2.2425E-5;8.2E-7;0;Iridium
14.33637991;0.0006144;86.3926;16.221;308.104;51.9601;2.2425E-5;8.2E-7;0;Iridium
14.33638026;0.000612;86.3926;16.0751;306.6993;53.364;2.125E-5;7.8E-7;0;Iridium
14.33638105;0.0006066;86.3927;15.7833;303.8127;56.2491;2.1942E-5;8.0E-7;0;Iridium
14.33638174;0.0006043;86.3927;15.6666;302.5911;57.4701;2.2704E-5;8.3E-7;0;Iridium
14.33638282;0.000601;86.3927;15.4623;300.4625;59.5976;2.4407E-5;8.7E-7;0;Iridium
14.33638338;0.0005956;86.3927;15.2289;297.9699;62.0894;2.3314E-5;8.4E-7;0;Iridium
14.33638404;0.0005936;86.3927;15.0538;296.2129;63.8456;2.364E-5;8.5E-7;0;Iridium
14.3363843;0.0005897;86.3928;14.8204;293.8081;66.2496;2.0112E-5;7.5E-7;0;Iridium
14.33638454;0.0005883;86.3928;14.6453;292.0418;68.0152;1.8544E-5;7.1E-7;0;Iridium
14.33638476;0.000585;86.3928;14.4119;289.5834;70.4729;1.5525E-5;6.3E-7;0;Iridium
14.33638494;0.0005837;86.3928;14.2659;288.0671;71.9888;1.475E-5;6.0E-7;0;Iridium
14.33638533;0.0005813;86.3929;14.0033;285.2804;74.7749;1.2699E-5;5.5E-7;0;Iridium
14.33638587;0.0005802;86.3929;13.8282;283.4258;76.6291;1.3478E-5;5.7E-7;0;Iridium
14.33638587;0.0005802;86.3929;13.8282;283.4258;76.6291;1.3478E-5;5.7E-7;0;Iridium
14.33638637;0.0005784;86.3929;13.5656;280.6858;79.3686;1.2462E-5;5.4E-7;0;Iridium
14.33638728;0.0005771;86.393;13.4197;279.1045;80.9497;1.5592E-5;6.3E-7;0;Iridium
14.33638788;0.0005758;86.393;13.157;276.3693;83.6846;1.5006E-5;6.1E-7;0;Iridium
14.33638867;0.0005747;86.393;12.982;274.4375;85.6164;1.761E-5;6.8E-7;0;Iridium
14.33638867;0.0005747;86.393;12.982;274.4375;85.6164;1.761E-5;6.8E-7;0;Iridium
14.33638907;0.0005737;86.393;12.7485;271.898;88.1558;1.7148E-5;6.7E-7;0;Iridium
14.33638954;0.0005742;86.393;12.5734;270.0585;89.9953;1.8368E-5;7.1E-7;0;Iridium
14.33638993;0.0005738;86.393;12.3691;267.8316;92.2223;1.8421E-5;7.1E-7;0;Iridium
14.33639073;0.0005743;86.3931;12.1357;265.3061;94.7478;2.0262E-5;7.6E-7;0;Iridium
14.33639073;0.0005743;86.3931;12.1357;265.3061;94.7478;2.0262E-5;7.6E-7;0;Iridium
14.33639111;0.0005742;86.3931;11.9022;262.8686;97.1857;1.9798E-5;7.4E-7;0;Iridium
14.33639216;0.0005745;86.393;11.7562;261.1856;98.8689;2.3869E-5;8.6E-7;0;Iridium
14.3363926;0.0005749;86.393;11.5811;259.3162;100.7386;2.4334E-5;8.7E-7;0;Iridium
14.33639273;0.0005751;86.393;11.4936;258.4143;101.6407;2.3253E-5;8.4E-7;0;Iridium
14.33639359;0.0005765;86.393;11.2893;256.2191;103.8363;2.5235E-5;9.0E-7;0;Iridium
14.33639359;0.0005765;86.393;11.2893;256.2191;103.8363;2.5235E-5;9.0E-7;0;Iridium
14.33639409;0.0005775;86.3929;11.0559;253.826;106.2301;2.483E-5;8.8E-7;0;Iridium
14.33639431;0.0005785;86.393;10.9683;252.8866;107.1696;2.5885E-5;9.1E-7;0;Iridium
14.33639568;0.0005808;86.3929;10.6473;249.4888;110.5684;2.7125E-5;9.5E-7;0;Iridium
14.33639615;0.0005824;86.3929;10.5013;247.9982;112.0594;2.7468E-5;9.6E-7;0;Iridium
14.33639632;0.0005827;86.3928;10.4721;247.6758;112.382;2.7514E-5;9.6E-7;0;Iridium
14.33639695;0.0005845;86.3928;10.2387;245.2608;114.7979;2.5894E-5;9.1E-7;0;Iridium
14.33639736;0.0005868;86.3928;10.0636;243.4549;116.6045;2.5142E-5;8.9E-7;0;Iridium
14.33639783;0.0005893;86.3928;9.8301;241.0689;118.9916;2.2696E-5;8.3E-7;0;Iridium
14.33639875;0.0005926;86.3927;9.6258;238.9412;121.1203;2.3699E-5;8.5E-7;0;Iridium
14.33639875;0.0005926;86.3927;9.6258;238.9412;121.1203;2.3699E-5;8.5E-7;0;Iridium
14.33640042;0.0005991;86.3926;9.2172;234.7751;125.2884;2.3959E-5;8.6E-7;0;Iridium
14.33640128;0.0006025;86.3926;8.9838;232.4187;127.6462;2.3661E-5;8.5E-7;0;Iridium
14.3364029;0.0006087;86.3926;8.6335;228.8122;131.2549;2.4329E-5;8.7E-7;0;Iridium
14.33640307;0.0006098;86.3926;8.5752;228.2279;131.8396;2.3359E-5;8.4E-7;0;Iridium
14.33640487;0.0006173;86.3925;8.1666;224.2027;135.8676;2.4024E-5;8.6E-7;0;Iridium
14.33640589;0.0006257;86.3925;7.7871;220.4468;139.6263;2.2565E-5;8.2E-7;0;Iridium
14.33640588;0.0006267;86.3925;7.7287;219.8873;140.1863;2.1308E-5;7.9E-7;0;Iridium
14.33640632;0.0006309;86.3924;7.5536;218.2182;141.8567;2.106E-5;7.8E-7;0;Iridium
14.33640673;0.0006361;86.3924;7.32;215.9626;144.1143;1.9211E-5;7.3E-7;0;Iridium
14.33640745;0.0006397;86.3923;7.1449;214.3385;145.7397;2.0557E-5;7.7E-7;0;Iridium
14.33640795;0.0006453;86.3923;6.9113;212.1401;147.9402;1.9862E-5;7.5E-7;0;Iridium
14.33640959;0.000656;86.3922;6.5027;208.3653;151.7186;2.3782E-5;8.6E-7;0;Iridium
14.33641121;0.0006682;86.3921;6.0648;204.3533;155.7348;2.6692E-5;9.4E-7;0;Iridium
14.33641206;0.0006744;86.392;5.802;202.0829;158.0076;2.8485E-5;9.9E-7;0;Iridium
14.33641206;0.0006744;86.392;5.802;202.0829;158.0076;2.8485E-5;9.9E-7;0;Iridium
14.33641256;0.0006783;86.392;5.656;200.7928;159.2993;2.7847E-5;9.7E-7;0;Iridium
14.33641334;0.0006868;86.3919;5.3057;197.8026;162.293;2.7363E-5;9.5E-7;0;Iridium
14.33641303;0.0006892;86.3919;5.2473;197.2314;162.8649;2.4591E-5;8.8E-7;0;Iridium
14.33641436;0.0006993;86.3918;4.8678;194.0407;166.0595;2.4846E-5;8.9E-7;0;Iridium
14.33641437;0.0007004;86.3917;4.8386;193.7892;166.3113;2.4057E-5;8.6E-7;0;Iridium
14.33641642;0.000712;86.3916;4.4298;190.3296;169.7754;2.6027E-5;9.2E-7;0;Iridium
14.33641651;0.0007128;86.3916;4.4006;190.0935;170.0119;2.5955E-5;9.2E-7;0;Iridium
14.33641821;0.0007221;86.3914;4.0502;187.2085;172.9007;2.7795E-5;9.7E-7;0;Iridium
14.33641821;0.0007221;86.3914;4.0502;187.2085;172.9007;2.7795E-5;9.7E-7;0;Iridium
14.33641826;0.0007239;86.3914;3.9919;186.7238;173.3861;2.6169E-5;9.2E-7;0;Iridium
14.33641915;0.0007299;86.3913;3.7875;185.0891;175.0232;2.6587E-5;9.3E-7;0;Iridium
14.33642027;0.0007404;86.3913;3.4079;182.1052;178.0114;2.4316E-5;8.7E-7;0;Iridium
14.33642034;0.0007413;86.3912;3.3787;181.8754;178.2415;2.3855E-5;8.6E-7;0;Iridium
14.33642079;0.0007476;86.3912;3.1744;180.2307;179.8887;2.204E-5;8.1E-7;0;Iridium
14.33642156;0.0007595;86.391;2.7656;177.0166;183.1076;1.8751E-5;7.2E-7;0;Iridium
14.33642156;0.0007595;86.391;2.7656;177.0166;183.1076;1.8751E-5;7.2E-7;0;Iridium
14.3364216;0.000761;86.3911;2.7365;176.7787;183.3458;1.8539E-5;7.1E-7;0;Iridium
14.33642236;0.0007708;86.3909;2.386;174.0727;186.0561;1.7486E-5;6.8E-7;0;Iridium
14.33642258;0.0007723;86.3909;2.3276;173.6322;186.4973;1.7197E-5;6.7E-7;0;Iridium
14.33642382;0.0007841;86.3909;1.9772;170.9361;189.1978;1.9771E-5;7.5E-7;0;Iridium
14.33642416;0.0007856;86.3909;1.9188;170.4782;189.6564;2.0378E-5;7.6E-7;0;Iridium
14.336425;0.0007986;86.3908;1.51;167.4376;192.702;1.9958E-5;7.5E-7;0;Iridium
14.33642567;0.000804;86.3907;1.3055;165.938;194.2041;2.1383E-5;7.9E-7;0;Iridium
14.33642605;0.000811;86.3906;1.0719;164.182;195.963;2.0708E-5;7.7E-7;0;Iridium
14.33642668;0.0008188;86.3906;0.7506;161.8271;198.3218;2.173E-5;8.0E-7;0;Iridium
14.33642671;0.0008192;86.3905;0.7215;161.6092;198.5402;2.125E-5;7.9E-7;0;Iridium
14.33642667;0.0008212;86.3905;0.663;161.195;198.9551;1.9772E-5;7.5E-7;0;Iridium
14.33642771;0.0008314;86.3903;0.3125;158.7063;201.448;2.2099E-5;8.1E-7;0;Iridium
14.33642789;0.0008323;86.3903;0.2833;158.4994;201.6553;2.2317E-5;8.2E-7;0;Iridium
14.33642795;0.0008332;86.3903;0.2541;158.2921;201.8629;2.2067E-5;8.1E-7;0;Iridium
14.33642923;0.0008404;86.3902;0.0204;156.6436;203.5143;2.5302E-5;9.0E-7;0;Iridium
14.33642985;0.0008443;86.3901;359.8743;155.6113;204.5484;2.6546E-5;9.3E-7;0;Iridium
14.3364301;0.0008458;86.3901;359.8159;155.1863;204.9741;2.6813E-5;9.4E-7;0;Iridium
14.33643134;0.0008552;86.3899;359.4654;152.7252;207.4395;2.8045E-5;9.7E-7;0;Iridium
14.33643134;0.0008552;86.3899;359.4654;152.7252;207.4395;2.8045E-5;9.7E-7;0;Iridium
14.33643131;0.0008573;86.3899;359.4069;152.2942;207.8712;2.6778E-5;9.4E-7;0;Iridium
14.33643252;0.0008676;86.3897;358.998;149.4782;210.692;2.5365E-5;9.0E-7;0;Iridium
14.33643351;0.000873;86.3896;358.7935;148.091;212.0816;2.644E-5;9.3E-7;0;Iridium
14.33643431;0.0008786;86.3895;358.5598;146.4998;213.6755;2.5468E-5;9.0E-7;0;Iridium
14.33643515;0.0008828;86.3895;358.3846;145.315;214.8623;2.5752E-5;9.1E-7;0;Iridium
14.33643587;0.0008894;86.3894;358.1509;143.7327;216.4473;2.4149E-5;8.7E-7;0;Iridium
14.33643769;0.0009027;86.3891;357.5373;139.6471;220.5396;2.0988E-5;7.8E-7;0;Iridium
14.33643832;0.000906;86.3891;357.362;138.4709;221.7177;2.0928E-5;7.8E-7;0;Iridium
14.33643829;0.000907;86.389;357.3328;138.2791;221.9098;2.0114E-5;7.6E-7;0;Iridium
14.33643881;0.0009114;86.389;357.1283;136.9534;223.2376;1.9412E-5;7.4E-7;0;Iridium
14.33643918;0.0009189;86.3889;356.8654;135.2558;224.938;1.7871E-5;6.9E-7;0;Iridium
